ASTROCAST-0403          
1 55111U 23001DG  26068.82333059  .00013959  00000+0  51317-3 0  9990
2 55111  97.5604 161.3228 0004770 338.0704  22.0330 15.28004949129376
STARLINK-31311          
1 58948U 24027T   26068.97694272 -.00000693  00000+0 -11277-4 0  9998
2 58948  53.1608 306.0707 0001308  72.0046 288.1097 15.30172647117407
